start=new Date('2023-03-08T00:00:00.000Z').valueOf();
sats=[{"INCLINATION":"53.2164","SEMIMAJOR_AXIS":"6917.798","SITE":"AFETR","DECAY_DATE":null,"TLE_LINE2":"2 53743  53.2164 153.2601 0001680  95.2340 264.8844 15.08866960 28837","BSTAR":"0.00400670000000","COUNTRY_CODE":"US","PERIAPSIS":"538.501","REF_FRAME":"TEME","CLASSIFICATION_TYPE":"U","MEAN_ANOMALY":"264.8844","TIME_SYSTEM":"UTC","MEAN_MOTION":"15.08866960","OBJECT_TYPE":"PAYLOAD","RA_OF_ASC_NODE":"153.2601","LAUNCH_DATE":"2022-09-05","EPOCH":"2023-03-07T16:53:52.659744","TLE_LINE1":"1 53743U 22107AV  23066.70408171  .00064107  00000-0  40067-2 0  9996","OBJECT_NAME":"STARLINK-4645","ECCENTRICITY":"0.00016800","NORAD_CAT_ID":"53743","OBJECT_ID":"2022-107AV","PERIOD":"95.436","ARG_OF_PERICENTER":"95.2340","MEAN_MOTION_DOT":"0.00064107","RCS_SIZE":"LARGE","EPHEMERIS_TYPE":"0","MEAN_ELEMENT_THEORY":"SGP4","GP_ID":"227677880","APOAPSIS":"540.825","FILE":"3854072","ELEMENT_SET_NO":"999","CENTER_NAME":"EARTH","MEAN_MOTION_DDOT":"0.0000000000000","REV_AT_EPOCH":"2883"},{"INCLINATION":"53.2163","SEMIMAJOR_AXIS":"6917.736","SITE":"AFETR","DECAY_DATE":null,"TLE_LINE2":"2 53744  53.2163 152.8934 0001485 108.3165 251.7989 15.08887287 28846","COUNTRY_CODE":"US","BSTAR":"0.00380410000000","PERIAPSIS":"538.574","REF_FRAME":"TEME","CLASSIFICATION_TYPE":"U","MEAN_ANOMALY":"251.7989","MEAN_MOTION":"15.08887287","TIME_SYSTEM":"UTC","OBJECT_TYPE":"PAYLOAD","RA_OF_ASC_NODE":"152.8934","LAUNCH_DATE":"2022-09-05","EPOCH":"2023-03-07T18:13:20.807904","TLE_LINE1":"1 53744U 22107AW  23066.75926861  .00060856  00000-0  38041-2 0  9999","OBJECT_NAME":"STARLINK-4670","ECCENTRICITY":"0.00014850","NORAD_CAT_ID":"53744","OBJECT_ID":"2022-107AW","PERIOD":"95.435","ARG_OF_PERICENTER":"108.3165","MEAN_MOTION_DOT":"0.00060856","RCS_SIZE":"LARGE","EPHEMERIS_TYPE":"0","MEAN_ELEMENT_THEORY":"SGP4","GP_ID":"227677619","APOAPSIS":"540.628","FILE":"3854072","ELEMENT_SET_NO":"999","CENTER_NAME":"EARTH","MEAN_MOTION_DDOT":"0.0000000000000","REV_AT_EPOCH":"2884"},{"ELEMENT_SET_NO":"999","GP_ID":"227676884","APOAPSIS":"540.152","FILE":"3854072","MEAN_MOTION_DDOT":"0.0000000000000","CENTER_NAME":"EARTH","REV_AT_EPOCH":"2886","NORAD_CAT_ID":"53745","PERIOD":"95.433","OBJECT_ID":"2022-107AX","TLE_LINE1":"1 53745U 22107AX  23066.90648387  .00052335  00000-0  32754-2 0  9999","OBJECT_NAME":"STARLINK-4656","ECCENTRICITY":"0.00009190","RCS_SIZE":"LARGE","EPHEMERIS_TYPE":"0","MEAN_ELEMENT_THEORY":"SGP4","ARG_OF_PERICENTER":"69.0025","MEAN_MOTION_DOT":"0.00052335","REF_FRAME":"TEME","CLASSIFICATION_TYPE":"U","MEAN_ANOMALY":"291.1066","TLE_LINE2":"2 53745  53.2166 152.3913 0000919  69.0025 291.1066 15.08915043 28869","COUNTRY_CODE":"US","BSTAR":"0.00327540000000","PERIAPSIS":"538.880","OBJECT_TYPE":"PAYLOAD","RA_OF_ASC_NODE":"152.3913","EPOCH":"2023-03-07T21:45:20.206368","LAUNCH_DATE":"2022-09-05","MEAN_MOTION":"15.08915043","TIME_SYSTEM":"UTC","SITE":"AFETR","INCLINATION":"53.2166","SEMIMAJOR_AXIS":"6917.651","DECAY_DATE":null},{"SEMIMAJOR_AXIS":"6917.846","INCLINATION":"53.2142","SITE":"AFETR","DECAY_DATE":null,"PERIAPSIS":"539.013","BSTAR":"0.00091161000000","COUNTRY_CODE":"US","TLE_LINE2":"2 53746  53.2142 152.3413 0001009 114.3687 245.7411 15.08851246 28861","MEAN_ANOMALY":"245.7411","CLASSIFICATION_TYPE":"U","REF_FRAME":"TEME","MEAN_MOTION":"15.08851246","TIME_SYSTEM":"UTC","EPOCH":"2023-03-07T21:34:43.850496","LAUNCH_DATE":"2022-09-05","RA_OF_ASC_NODE":"152.3413","OBJECT_TYPE":"PAYLOAD","ECCENTRICITY":"0.00010090","OBJECT_NAME":"STARLINK-4589","TLE_LINE1":"1 53746U 22107AY  23066.89911864  .00014255  00000-0  91161-3 0  9998","PERIOD":"95.437","OBJECT_ID":"2022-107AY","NORAD_CAT_ID":"53746","MEAN_MOTION_DOT":"0.00014255","ARG_OF_PERICENTER":"114.3687","MEAN_ELEMENT_THEORY":"SGP4","EPHEMERIS_TYPE":"0","RCS_SIZE":"LARGE","APOAPSIS":"540.409","FILE":"3854072","GP_ID":"227677133","ELEMENT_SET_NO":"999","REV_AT_EPOCH":"2886","CENTER_NAME":"EARTH","MEAN_MOTION_DDOT":"0.0000000000000"},{"TLE_LINE1":"1 53748U 22107BA  23066.64521250  .00017202  00000-0  10954-2 0  9994","OBJECT_NAME":"STARLINK-4669","ECCENTRICITY":"0.00018280","OBJECT_ID":"2022-107BA","PERIOD":"95.436","NORAD_CAT_ID":"53748","MEAN_MOTION_DOT":"0.00017202","ARG_OF_PERICENTER":"121.3570","MEAN_ELEMENT_THEORY":"SGP4","RCS_SIZE":"LARGE","EPHEMERIS_TYPE":"0","APOAPSIS":"540.923","FILE":"3854072","GP_ID":"227677381","ELEMENT_SET_NO":"999","REV_AT_EPOCH":"2882","CENTER_NAME":"EARTH","MEAN_MOTION_DDOT":"0.0000000000000","SEMIMAJOR_AXIS":"6917.794","INCLINATION":"53.2161","SITE":"AFETR","DECAY_DATE":null,"COUNTRY_CODE":"US","BSTAR":"0.00109540000000","PERIAPSIS":"538.394","TLE_LINE2":"2 53748  53.2161 153.5988 0001828 121.3570 238.7602 15.08868426 28820","CLASSIFICATION_TYPE":"U","MEAN_ANOMALY":"238.7602","REF_FRAME":"TEME","MEAN_MOTION":"15.08868426","TIME_SYSTEM":"UTC","EPOCH":"2023-03-07T15:29:06.360000","LAUNCH_DATE":"2022-09-05","OBJECT_TYPE":"PAYLOAD","RA_OF_ASC_NODE":"153.5988"},{"MEAN_ANOMALY":"269.2777","CLASSIFICATION_TYPE":"U","REF_FRAME":"TEME","PERIAPSIS":"538.807","COUNTRY_CODE":"US","BSTAR":"0.00009726900000","TLE_LINE2":"2 53749  53.2182 154.4845 0001371  90.8373 269.2777 15.08836829 28790","EPOCH":"2023-03-07T10:48:15.259104","LAUNCH_DATE":"2022-09-05","RA_OF_ASC_NODE":"154.4845","OBJECT_TYPE":"PAYLOAD","TIME_SYSTEM":"UTC","MEAN_MOTION":"15.08836829","SITE":"AFETR","SEMIMAJOR_AXIS":"6917.890","INCLINATION":"53.2182","DECAY_DATE":null,"ELEMENT_SET_NO":"999","FILE":"3854072","APOAPSIS":"540.704","GP_ID":"227678119","REV_AT_EPOCH":"2879","MEAN_MOTION_DDOT":"0.0000000000000","CENTER_NAME":"EARTH","PERIOD":"95.438","OBJECT_ID":"2022-107BB","NORAD_CAT_ID":"53749","ECCENTRICITY":"0.00013710","OBJECT_NAME":"STARLINK-4680","TLE_LINE1":"1 53749U 22107BB  23066.45017661  .00001260  00000-0  97269-4 0  9993","MEAN_ELEMENT_THEORY":"SGP4","EPHEMERIS_TYPE":"0","RCS_SIZE":"LARGE","MEAN_MOTION_DOT":"0.00001260","ARG_OF_PERICENTER":"90.8373"},{"OBJECT_ID":"2022-107BC","PERIOD":"95.437","NORAD_CAT_ID":"53750","OBJECT_NAME":"STARLINK-4612","TLE_LINE1":"1 53750U 22107BC  23066.65257392  .00008639  00000-0  56011-3 0  9990","ECCENTRICITY":"0.00018350","MEAN_ELEMENT_THEORY":"SGP4","RCS_SIZE":"LARGE","EPHEMERIS_TYPE":"0","MEAN_MOTION_DOT":"0.00008639","ARG_OF_PERICENTER":"129.9270","ELEMENT_SET_NO":"999","APOAPSIS":"540.998","FILE":"3854072","GP_ID":"227676385","REV_AT_EPOCH":"2883","CENTER_NAME":"EARTH","MEAN_MOTION_DDOT":"0.0000000000000","SITE":"AFETR","SEMIMAJOR_AXIS":"6917.864","INCLINATION":"53.2189","DECAY_DATE":null,"CLASSIFICATION_TYPE":"U","MEAN_ANOMALY":"230.1884","REF_FRAME":"TEME","COUNTRY_CODE":"US","BSTAR":"0.00056011000000","PERIAPSIS":"538.460","TLE_LINE2":"2 53750  53.2189 153.6451 0001835 129.9270 230.1884 15.08845343 28830","EPOCH":"2023-03-07T15:39:42.386688","LAUNCH_DATE":"2022-09-05","OBJECT_TYPE":"PAYLOAD","RA_OF_ASC_NODE":"153.6451","TIME_SYSTEM":"UTC","MEAN_MOTION":"15.08845343"},{"ELEMENT_SET_NO":"999","APOAPSIS":"540.906","FILE":"3854072","GP_ID":"227677383","REV_AT_EPOCH":"2808","MEAN_MOTION_DDOT":"0.0000000000000","CENTER_NAME":"EARTH","PERIOD":"95.437","OBJECT_ID":"2022-111A","NORAD_CAT_ID":"53773","OBJECT_NAME":"STARLINK-4718","TLE_LINE1":"1 53773U 22111A   23066.67278679  .00026582  00000-0  16816-2 0  9998","ECCENTRICITY":"0.00017160","MEAN_ELEMENT_THEORY":"SGP4","RCS_SIZE":"LARGE","EPHEMERIS_TYPE":"0","MEAN_MOTION_DOT":"0.00026582","ARG_OF_PERICENTER":"106.4984","CLASSIFICATION_TYPE":"U","MEAN_ANOMALY":"253.6197","REF_FRAME":"TEME","BSTAR":"0.00168160000000","COUNTRY_CODE":"US","PERIAPSIS":"538.532","TLE_LINE2":"2 53773  53.2151 173.2323 0001716 106.4984 253.6197 15.08848632 28088","EPOCH":"2023-03-07T16:08:48.778656","LAUNCH_DATE":"2022-09-11","OBJECT_TYPE":"PAYLOAD","RA_OF_ASC_NODE":"173.2323","TIME_SYSTEM":"UTC","MEAN_MOTION":"15.08848632","SITE":"AFETR","SEMIMAJOR_AXIS":"6917.854","INCLINATION":"53.2151","DECAY_DATE":null},{"REV_AT_EPOCH":"2794","MEAN_MOTION_DDOT":"0.0000000000000","CENTER_NAME":"EARTH","FILE":"3854072","APOAPSIS":"541.089","GP_ID":"227678121","ELEMENT_SET_NO":"999","MEAN_MOTION_DOT":"0.00023265","ARG_OF_PERICENTER":"90.4702","MEAN_ELEMENT_THEORY":"SGP4","RCS_SIZE":"LARGE","EPHEMERIS_TYPE":"0","TLE_LINE1":"1 53774U 22111B   23066.66910747  .00023265  00000-0  14752-2 0  9999","OBJECT_NAME":"STARLINK-4719","ECCENTRICITY":"0.00019240","PERIOD":"95.438","OBJECT_ID":"2022-111B","NORAD_CAT_ID":"53774","MEAN_MOTION":"15.08835765","TIME_SYSTEM":"UTC","EPOCH":"2023-03-07T16:03:30.885408","LAUNCH_DATE":"2022-09-11","OBJECT_TYPE":"PAYLOAD","RA_OF_ASC_NODE":"173.2102","BSTAR":"0.00147520000000","COUNTRY_CODE":"US","PERIAPSIS":"538.427","TLE_LINE2":"2 53774  53.2178 173.2102 0001924  90.4702 269.6511 15.08835765 27948","CLASSIFICATION_TYPE":"U","MEAN_ANOMALY":"269.6511","REF_FRAME":"TEME","DECAY_DATE":null,"SEMIMAJOR_AXIS":"6917.893","INCLINATION":"53.2178","SITE":"AFETR"},{"EPOCH":"2023-03-07T16:47:15.863424","LAUNCH_DATE":"2022-09-11","OBJECT_TYPE":"PAYLOAD","RA_OF_ASC_NODE":"163.4282","TIME_SYSTEM":"UTC","MEAN_MOTION":"15.08851757","CLASSIFICATION_TYPE":"U","MEAN_ANOMALY":"256.1538","REF_FRAME":"TEME","COUNTRY_CODE":"US","BSTAR":"0.00014868000000","PERIAPSIS":"539.144","TLE_LINE2":"2 53775  53.2194 163.4282 0000817 103.9545 256.1538 15.08851757 27930","DECAY_DATE":null,"SITE":"AFETR","SEMIMAJOR_AXIS":"6917.844","INCLINATION":"53.2194","REV_AT_EPOCH":"2793","CENTER_NAME":"EARTH","MEAN_MOTION_DDOT":"0.0000000000000","ELEMENT_SET_NO":"999","FILE":"3854072","APOAPSIS":"540.275","GP_ID":"227676387","MEAN_ELEMENT_THEORY":"SGP4","RCS_SIZE":"LARGE","EPHEMERIS_TYPE":"0","MEAN_MOTION_DOT":"0.00002080","ARG_OF_PERICENTER":"103.9545","OBJECT_ID":"2022-111C","PERIOD":"95.437","NORAD_CAT_ID":"53775","OBJECT_NAME":"STARLINK-4722","TLE_LINE1":"1 53775U 22111C   23066.69948916  .00002080  00000-0  14868-3 0  9993","ECCENTRICITY":"0.00008170"}];
